FENGYUN 1C DEB          
1 30734U 99025ASU 17345.49683506  .00005511  00000-0  43199-3 0  9994
2 30734  98.9998   0.3503 0063057 145.2684 215.2677 14.99924956574793
